{"type": "FeatureCollection", "features": [ {"type": "Feature", "properties": {"norad_id": 47015, "name": "FENGYUN 1C DEB", "group": "fengyun-1c-debris", "lat": 75.30203192526558, "lon": -89.08235805127143, "alt_km": 485.80763805976585, "timestamp": "2025-12-23T09:49:07.374297+00:00", "meta": {"OBJECT_NAME": "FENGYUN 1C DEB", "OBJECT_ID": "1999-025FAR", "EPOCH": "2025-12-20T10:20:25.475424", "MEAN_MOTION": 14.87477483, "ECCENTRICITY": 0.01753836, "INCLINATION": 98.7094, "RA_OF_ASC_NODE": 51.8891, "ARG_OF_PERICENTER": 88.0341, "MEAN_ANOMALY": 274.0948, "EPHEMERIS_TYPE": 0, "CLASSIFICATION_TYPE": "U", "NORAD_CAT_ID": 47015, "ELEMENT_SET_NO": 999, "REV_AT_EPOCH": 64496, "BSTAR": 0.00039688494, "MEAN_MOTION_DOT": 4.702e-05, "MEAN_MOTION_DDOT": 0}, "tle": {"line1": "1 47015U 99025FAR 25354.43085041  .00004702  00000+0  39688-3 0  9995", "line2": "2 47015  98.7094  51.8891 0175383  88.0341 274.0948 14.87477483644965"}}, "geometry": {"type": "Point", "coordinates": [-89.08235805127143, 75.30203192526558]}}, {"type": "Feature", "properties": {"norad_id": 47025, "name": "FENGYUN 1C DEB", "group": "fengyun-1c-debris", "lat": -49.617299905433335, "lon": -144.5815498181194, "alt_km": 716.5507912639987, "timestamp": "2025-12-23T09:49:07.374307+00:00", "meta": {"OBJECT_NAME": "FENGYUN 1C DEB", "OBJECT_ID": "1999-025FBB", "EPOCH": "2025-12-20T09:34:08.170752", "MEAN_MOTION": 14.46390047, "ECCENTRICITY": 0.00405413, "INCLINATION": 99.0322, "RA_OF_ASC_NODE": 201.4338, "ARG_OF_PERICENTER": 335.101, "MEAN_ANOMALY": 148.2419, "EPHEMERIS_TYPE": 0, "CLASSIFICATION_TYPE": "U", "NORAD_CAT_ID": 47025, "ELEMENT_SET_NO": 999, "REV_AT_EPOCH": 62852, "BSTAR": 0.0013507496, "MEAN_MOTION_DOT": 4.852e-05, "MEAN_MOTION_DDOT": 0}, "tle": {"line1": "1 47025U 99025FBB 25354.39870568  .00004852  00000+0  13507-2 0  9994", "line2": "2 47025  99.0322 201.4338 0040541 335.1010 148.2419 14.46390047628523"}}, "geometry": {"type": "Point", "coordinates": [-144.5815498181194, -49.617299905433335]}}, {"type": "Feature", "properties": {"norad_id": 47036, "name": "FENGYUN 1C DEB", "group": "fengyun-1c-debris", "lat": -5.100802058986244, "lon": 41.36924611219722, "alt_km": 830.0896230745575, "timestamp": "2025-12-23T09:49:07.374317+00:00", "meta": {"OBJECT_NAME": "FENGYUN 1C DEB", "OBJECT_ID": "1999-025FBN", "EPOCH": "2025-12-21T21:22:20.214336", "MEAN_MOTION": 14.15181398, "ECCENTRICITY": 0.00688084, "INCLINATION": 98.7206, "RA_OF_ASC_NODE": 39.0997, "ARG_OF_PERICENTER": 71.9152, "MEAN_ANOMALY": 111.3829, "EPHEMERIS_TYPE": 0, "CLASSIFICATION_TYPE": "U", "NORAD_CAT_ID": 47036, "ELEMENT_SET_NO": 999, "REV_AT_EPOCH": 60056, "BSTAR": 0.0001328912, "MEAN_MOTION_DOT": 2.21e-06, "MEAN_MOTION_DDOT": 0}, "tle": {"line1": "1 47036U 99025FBN 25355.89051174  .00000221  00000+0  13289-3 0  9990", "line2": "2 47036  98.7206  39.0997 0068808  71.9152 111.3829 14.15181398600569"}}, "geometry": {"type": "Point", "coordinates": [41.36924611219722, -5.100802058986244]}}, {"type": "Feature", "properties": {"norad_id": 47040, "name": "FENGYUN 1C DEB", "group": "fengyun-1c-debris", "lat": 9.764862627400941, "lon": 87.41713552000799, "alt_km": 835.1085776471282, "timestamp": "2025-12-23T09:49:07.374327+00:00", "meta": {"OBJECT_NAME": "FENGYUN 1C DEB", "OBJECT_ID": "1999-025FBS", "EPOCH": "2025-12-15T23:27:12.170880", "MEAN_MOTION": 14.06493473, "ECCENTRICITY": 0.00627218, "INCLINATION": 100.2945, "RA_OF_ASC_NODE": 257.1831, "ARG_OF_PERICENTER": 223.9582, "MEAN_ANOMALY": 135.6583, "EPHEMERIS_TYPE": 0, "CLASSIFICATION_TYPE": "U", "NORAD_CAT_ID": 47040, "ELEMENT_SET_NO": 999, "REV_AT_EPOCH": 89154, "BSTAR": 0.00050503613, "MEAN_MOTION_DOT": 7.95e-06, "MEAN_MOTION_DDOT": 0}, "tle": {"line1": "1 47040U 99025FBS 25349.97722420  .00000795  00000+0  50504-3 0  9993", "line2": "2 47040 100.2945 257.1831 0062721 223.9582 135.6583 14.06493473891543"}}, "geometry": {"type": "Point", "coordinates": [87.41713552000799, 9.764862627400941]}}, {"type": "Feature", "properties": {"norad_id": 47041, "name": "FENGYUN 1C DEB", "group": "fengyun-1c-debris", "lat": -0.4206038150345926, "lon": 24.762364412364093, "alt_km": 555.5102967313451, "timestamp": "2025-12-23T09:49:07.374338+00:00", "meta": {"OBJECT_NAME": "FENGYUN 1C DEB", "OBJECT_ID": "1999-025FBT", "EPOCH": "2025-12-21T21:43:52.303872", "MEAN_MOTION": 15.07613017, "ECCENTRICITY": 0.00152702, "INCLINATION": 98.2551, "RA_OF_ASC_NODE": 23.0881, "ARG_OF_PERICENTER": 155.156, "MEAN_ANOMALY": 328.5248, "EPHEMERIS_TYPE": 0, "CLASSIFICATION_TYPE": "U", "NORAD_CAT_ID": 47041, "ELEMENT_SET_NO": 999, "REV_AT_EPOCH": 71327, "BSTAR": 0.0019834632, "MEAN_MOTION_DOT": 0.00030313, "MEAN_MOTION_DDOT": 0}, "tle": {"line1": "1 47041U 99025FBT 25355.90546648  .00030313  00000+0  19835-2 0  9990", "line2": "2 47041  98.2551  23.0881 0015270 155.1560 328.5248 15.07613017713271"}}, "geometry": {"type": "Point", "coordinates": [24.762364412364093, -0.4206038150345926]}}, {"type": "Feature", "properties": {"norad_id": 47042, "name": "FENGYUN 1C DEB", "group": "fengyun-1c-debris", "lat": 28.31589697706877, "lon": -109.75343256833993, "alt_km": 778.312482625447, "timestamp": "2025-12-23T09:49:07.374348+00:00", "meta": {"OBJECT_NAME": "FENGYUN 1C DEB", "OBJECT_ID": "1999-025FBU", "EPOCH": "2025-12-19T12:00:36.072000", "MEAN_MOTION": 14.22844145, "ECCENTRICITY": 0.0055101, "INCLINATION": 99.0013, "RA_OF_ASC_NODE": 251.153, "ARG_OF_PERICENTER": 15.4542, "MEAN_ANOMALY": 162.9996, "EPHEMERIS_TYPE": 0, "CLASSIFICATION_TYPE": "U", "NORAD_CAT_ID": 47042, "ELEMENT_SET_NO": 999, "REV_AT_EPOCH": 62617, "BSTAR": 0.00020738, "MEAN_MOTION_DOT": 4.26e-06, "MEAN_MOTION_DDOT": 0}, "tle": {"line1": "1 47042U 99025FBU 25353.50041750  .00000426  00000+0  20738-3 0  9996", "line2": "2 47042  99.0013 251.1530 0055101  15.4542 162.9996 14.22844145626170"}}, "geometry": {"type": "Point", "coordinates": [-109.75343256833993, 28.31589697706877]}}, {"type": "Feature", "properties": {"norad_id": 47100, "name": "FENGYUN 1C DEB", "group": "fengyun-1c-debris", "lat": 6.246064633617244, "lon": -1.2891349314973737, "alt_km": 776.1675488179153, "timestamp": "2025-12-23T09:49:07.374358+00:00", "meta": {"OBJECT_NAME": "FENGYUN 1C DEB", "OBJECT_ID": "1999-025FBY", "EPOCH": "2025-12-22T11:30:36.333216", "MEAN_MOTION": 14.5155841, "ECCENTRICITY": 0.00891467, "INCLINATION": 99.0201, "RA_OF_ASC_NODE": 176.7177, "ARG_OF_PERICENTER": 324.4354, "MEAN_ANOMALY": 35.0918, "EPHEMERIS_TYPE": 0, "CLASSIFICATION_TYPE": "U", "NORAD_CAT_ID": 47100, "ELEMENT_SET_NO": 999, "REV_AT_EPOCH": 26909, "BSTAR": 0.0020436851, "MEAN_MOTION_DOT": 8.566e-05, "MEAN_MOTION_DDOT": 0}, "tle": {"line1": "1 47100U 99025FBY 25356.47958719  .00008566  00000+0  20437-2 0  9990", "line2": "2 47100  99.0201 176.7177 0089146 324.4354  35.0918 14.51558410269090"}}, "geometry": {"type": "Point", "coordinates": [-1.2891349314973737, 6.246064633617244]}}, {"type": "Feature", "properties": {"norad_id": 47104, "name": "FENGYUN 1C DEB", "group": "fengyun-1c-debris", "lat": -42.592103271263625, "lon": 35.31048377185255, "alt_km": 805.2494615469495, "timestamp": "2025-12-23T09:49:07.374368+00:00", "meta": {"OBJECT_NAME": "FENGYUN 1C DEB", "OBJECT_ID": "1999-025FCC", "EPOCH": "2025-12-20T19:25:32.617920", "MEAN_MOTION": 14.19434358, "ECCENTRICITY": 0.00403981, "INCLINATION": 98.9084, "RA_OF_ASC_NODE": 24.4065, "ARG_OF_PERICENTER": 313.3102, "MEAN_ANOMALY": 46.4707, "EPHEMERIS_TYPE": 0, "CLASSIFICATION_TYPE": "U", "NORAD_CAT_ID": 47104, "ELEMENT_SET_NO": 999, "REV_AT_EPOCH": 62487, "BSTAR": 0.00016269056, "MEAN_MOTION_DOT": 2.99e-06, "MEAN_MOTION_DDOT": 0}, "tle": {"line1": "1 47104U 99025FCC 25354.80940530  .00000299  00000+0  16269-3 0  9995", "line2": "2 47104  98.9084  24.4065 0040398 313.3102  46.4707 14.19434358624871"}}, "geometry": {"type": "Point", "coordinates": [35.31048377185255, -42.592103271263625]}}]}